{"type": "FeatureCollection", "features": [ {"type": "Feature", "properties": {"norad_id": 31303, "name": "FENGYUN 1C DEB", "group": "fengyun-1c-debris", "lat": -78.67627916520836, "lon": 62.77531716026042, "alt_km": 870.8449219761887, "timestamp": "2025-12-22T23:36:20.995131+00:00", "meta": {"OBJECT_NAME": "FENGYUN 1C DEB", "OBJECT_ID": "1999-025BPM", "EPOCH": "2025-12-20T07:19:42.048192", "MEAN_MOTION": 14.11028021, "ECCENTRICITY": 0.00119055, "INCLINATION": 98.704, "RA_OF_ASC_NODE": 10.274, "ARG_OF_PERICENTER": 131.8938, "MEAN_ANOMALY": 228.3251, "EPHEMERIS_TYPE": 0, "CLASSIFICATION_TYPE": "U", "NORAD_CAT_ID": 31303, "ELEMENT_SET_NO": 999, "REV_AT_EPOCH": 96425, "BSTAR": 6.4777287e-05, "MEAN_MOTION_DOT": 7.4e-07, "MEAN_MOTION_DDOT": 0}, "tle": {"line1": "1 31303U 99025BPM 25354.30534778  .00000074  00000+0  64777-4 0  9996", "line2": "2 31303  98.7040  10.2740 0011905 131.8938 228.3251 14.11028021964252"}}, "geometry": {"type": "Point", "coordinates": [62.77531716026042, -78.67627916520836]}}, {"type": "Feature", "properties": {"norad_id": 31311, "name": "FENGYUN 1C DEB", "group": "fengyun-1c-debris", "lat": -52.02085997191966, "lon": 90.01326466354918, "alt_km": 803.3903521165339, "timestamp": "2025-12-22T23:36:20.995141+00:00", "meta": {"OBJECT_NAME": "FENGYUN 1C DEB", "OBJECT_ID": "1999-025BPP", "EPOCH": "2025-12-22T05:40:27.234048", "MEAN_MOTION": 14.298213, "ECCENTRICITY": 0.00177697, "INCLINATION": 98.8522, "RA_OF_ASC_NODE": 77.7394, "ARG_OF_PERICENTER": 58.5213, "MEAN_ANOMALY": 5.1537, "EPHEMERIS_TYPE": 0, "CLASSIFICATION_TYPE": "U", "NORAD_CAT_ID": 31311, "ELEMENT_SET_NO": 999, "REV_AT_EPOCH": 96357, "BSTAR": 0.0017258647, "MEAN_MOTION_DOT": 4.401e-05, "MEAN_MOTION_DDOT": 0}, "tle": {"line1": "1 31311U 99025BPP 25356.23642632  .00004401  00000+0  17259-2 0  9997", "line2": "2 31311  98.8522  77.7394 0017769  58.5213   5.1537 14.29821300963577"}}, "geometry": {"type": "Point", "coordinates": [90.01326466354918, -52.02085997191966]}}, {"type": "Feature", "properties": {"norad_id": 31312, "name": "FENGYUN 1C DEB", "group": "fengyun-1c-debris", "lat": 51.41047427274035, "lon": 173.61764739784348, "alt_km": 878.2045186019659, "timestamp": "2025-12-22T23:36:20.995151+00:00", "meta": {"OBJECT_NAME": "FENGYUN 1C DEB", "OBJECT_ID": "1999-025BPQ", "EPOCH": "2025-12-15T05:56:52.525824", "MEAN_MOTION": 14.00925702, "ECCENTRICITY": 0.00580012, "INCLINATION": 98.8604, "RA_OF_ASC_NODE": 334.8421, "ARG_OF_PERICENTER": 229.1743, "MEAN_ANOMALY": 146.4845, "EPHEMERIS_TYPE": 0, "CLASSIFICATION_TYPE": "U", "NORAD_CAT_ID": 31312, "ELEMENT_SET_NO": 999, "REV_AT_EPOCH": 95181, "BSTAR": 0.00060391584, "MEAN_MOTION_DOT": 8.73e-06, "MEAN_MOTION_DDOT": 0}, "tle": {"line1": "1 31312U 99025BPQ 25349.24783016  .00000873  00000+0  60392-3 0  9999", "line2": "2 31312  98.8604 334.8421 0058001 229.1743 146.4845 14.00925702951810"}}, "geometry": {"type": "Point", "coordinates": [173.61764739784348, 51.41047427274035]}}, {"type": "Feature", "properties": {"norad_id": 31313, "name": "FENGYUN 1C DEB", "group": "fengyun-1c-debris", "lat": -59.239643730559685, "lon": 65.62605109707357, "alt_km": 823.817485773071, "timestamp": "2025-12-22T23:36:20.995162+00:00", "meta": {"OBJECT_NAME": "FENGYUN 1C DEB", "OBJECT_ID": "1999-025BPR", "EPOCH": "2025-12-20T16:27:15.687072", "MEAN_MOTION": 14.22283388, "ECCENTRICITY": 0.00450186, "INCLINATION": 99.0155, "RA_OF_ASC_NODE": 258.7479, "ARG_OF_PERICENTER": 158.3164, "MEAN_ANOMALY": 201.9931, "EPHEMERIS_TYPE": 0, "CLASSIFICATION_TYPE": "U", "NORAD_CAT_ID": 31313, "ELEMENT_SET_NO": 999, "REV_AT_EPOCH": 97175, "BSTAR": 0.00020600772, "MEAN_MOTION_DOT": 4.16e-06, "MEAN_MOTION_DDOT": 0}, "tle": {"line1": "1 31313U 99025BPR 25354.68559823  .00000416  00000+0  20601-3 0  9993", "line2": "2 31313  99.0155 258.7479 0045018 158.3164 201.9931 14.22283388971755"}}, "geometry": {"type": "Point", "coordinates": [65.62605109707357, -59.239643730559685]}}, {"type": "Feature", "properties": {"norad_id": 31314, "name": "FENGYUN 1C DEB", "group": "fengyun-1c-debris", "lat": 10.286848003607963, "lon": -10.904339784254393, "alt_km": 835.741892962883, "timestamp": "2025-12-22T23:36:20.995172+00:00", "meta": {"OBJECT_NAME": "FENGYUN 1C DEB", "OBJECT_ID": "1999-025BPS", "EPOCH": "2025-12-21T16:47:29.206176", "MEAN_MOTION": 14.04932666, "ECCENTRICITY": 0.00782896, "INCLINATION": 98.8225, "RA_OF_ASC_NODE": 349.4625, "ARG_OF_PERICENTER": 332.2098, "MEAN_ANOMALY": 27.4897, "EPHEMERIS_TYPE": 0, "CLASSIFICATION_TYPE": "U", "NORAD_CAT_ID": 31314, "ELEMENT_SET_NO": 999, "REV_AT_EPOCH": 60940, "BSTAR": 0.00038680028, "MEAN_MOTION_DOT": 5.96e-06, "MEAN_MOTION_DDOT": 0}, "tle": {"line1": "1 31314U 99025BPS 25355.69964359  .00000596  00000+0  38680-3 0  9995", "line2": "2 31314  98.8225 349.4625 0078289 332.2098  27.4897 14.04932666609409"}}, "geometry": {"type": "Point", "coordinates": [-10.904339784254393, 10.286848003607963]}}, {"type": "Feature", "properties": {"norad_id": 31319, "name": "FENGYUN 1C DEB", "group": "fengyun-1c-debris", "lat": -60.39855725340063, "lon": 59.172390676611926, "alt_km": 1111.2964609501805, "timestamp": "2025-12-22T23:36:20.995182+00:00", "meta": {"OBJECT_NAME": "FENGYUN 1C DEB", "OBJECT_ID": "1999-025BPX", "EPOCH": "2025-12-21T23:50:01.503744", "MEAN_MOTION": 13.75832162, "ECCENTRICITY": 0.0170636, "INCLINATION": 98.8312, "RA_OF_ASC_NODE": 254.1351, "ARG_OF_PERICENTER": 62.3771, "MEAN_ANOMALY": 315.9435, "EPHEMERIS_TYPE": 0, "CLASSIFICATION_TYPE": "U", "NORAD_CAT_ID": 31319, "ELEMENT_SET_NO": 999, "REV_AT_EPOCH": 93815, "BSTAR": 0.00020035, "MEAN_MOTION_DOT": 1.77e-06, "MEAN_MOTION_DDOT": 0}, "tle": {"line1": "1 31319U 99025BPX 25355.99307296  .00000177  00000+0  20035-3 0  9994", "line2": "2 31319  98.8312 254.1351 0170636  62.3771 315.9435 13.75832162938154"}}, "geometry": {"type": "Point", "coordinates": [59.172390676611926, -60.39855725340063]}}, {"type": "Feature", "properties": {"norad_id": 31321, "name": "FENGYUN 1C DEB", "group": "fengyun-1c-debris", "lat": 46.3538326903772, "lon": -95.10890541726633, "alt_km": 821.1488236215837, "timestamp": "2025-12-22T23:36:20.995193+00:00", "meta": {"OBJECT_NAME": "FENGYUN 1C DEB", "OBJECT_ID": "1999-025BPZ", "EPOCH": "2025-12-21T11:18:43.092576", "MEAN_MOTION": 14.13827699, "ECCENTRICITY": 0.00303049, "INCLINATION": 98.7333, "RA_OF_ASC_NODE": 74.1401, "ARG_OF_PERICENTER": 153.2037, "MEAN_ANOMALY": 207.0709, "EPHEMERIS_TYPE": 0, "CLASSIFICATION_TYPE": "U", "NORAD_CAT_ID": 31321, "ELEMENT_SET_NO": 999, "REV_AT_EPOCH": 57507, "BSTAR": 0.00012257196, "MEAN_MOTION_DOT": 1.9e-06, "MEAN_MOTION_DDOT": 0}, "tle": {"line1": "1 31321U 99025BPZ 25355.47133209  .00000190  00000+0  12257-3 0  9993", "line2": "2 31321  98.7333  74.1401 0030304 153.2037 207.0709 14.13827699575072"}}, "geometry": {"type": "Point", "coordinates": [-95.10890541726633, 46.3538326903772]}}, {"type": "Feature", "properties": {"norad_id": 31322, "name": "FENGYUN 1C DEB", "group": "fengyun-1c-debris", "lat": 70.47211240978366, "lon": -95.13052943068321, "alt_km": 1079.182559862419, "timestamp": "2025-12-22T23:36:20.995203+00:00", "meta": {"OBJECT_NAME": "FENGYUN 1C DEB", "OBJECT_ID": "1999-025BQA", "EPOCH": "2025-12-22T10:55:09.812352", "MEAN_MOTION": 13.73001176, "ECCENTRICITY": 0.02380895, "INCLINATION": 98.5721, "RA_OF_ASC_NODE": 59.2277, "ARG_OF_PERICENTER": 344.2123, "MEAN_ANOMALY": 29.7428, "EPHEMERIS_TYPE": 0, "CLASSIFICATION_TYPE": "U", "NORAD_CAT_ID": 31322, "ELEMENT_SET_NO": 999, "REV_AT_EPOCH": 62409, "BSTAR": 0.00020913462, "MEAN_MOTION_DOT": 1.98e-06, "MEAN_MOTION_DDOT": 0}, "tle": {"line1": "1 31322U 99025BQA 25356.45497468  .00000198  00000+0  20913-3 0  9999", "line2": "2 31322  98.5721  59.2277 0238089 344.2123  29.7428 13.73001176624098"}}, "geometry": {"type": "Point", "coordinates": [-95.13052943068321, 70.47211240978366]}}, {"type": "Feature", "properties": {"norad_id": 31323, "name": "FENGYUN 1C DEB", "group": "fengyun-1c-debris", "lat": -53.97634745213455, "lon": -156.95113322515292, "alt_km": 828.650883511561, "timestamp": "2025-12-22T23:36:20.995213+00:00", "meta": {"OBJECT_NAME": "FENGYUN 1C DEB", "OBJECT_ID": "1999-025BQB", "EPOCH": "2025-12-20T21:43:51.769056", "MEAN_MOTION": 14.27642156, "ECCENTRICITY": 0.0030892, "INCLINATION": 99.4195, "RA_OF_ASC_NODE": 34.0071, "ARG_OF_PERICENTER": 56.5612, "MEAN_ANOMALY": 303.8513, "EPHEMERIS_TYPE": 0, "CLASSIFICATION_TYPE": "U", "NORAD_CAT_ID": 31323, "ELEMENT_SET_NO": 999, "REV_AT_EPOCH": 64097, "BSTAR": 0.0010025, "MEAN_MOTION_DOT": 2.433e-05, "MEAN_MOTION_DDOT": 0}, "tle": {"line1": "1 31323U 99025BQB 25354.90546029  .00002433  00000+0  10025-2 0  9992", "line2": "2 31323  99.4195  34.0071 0030892  56.5612 303.8513 14.27642156640970"}}, "geometry": {"type": "Point", "coordinates": [-156.95113322515292, -53.97634745213455]}}, {"type": "Feature", "properties": {"norad_id": 31324, "name": "FENGYUN 1C DEB", "group": "fengyun-1c-debris", "lat": -46.75618137082582, "lon": 88.84318364470022, "alt_km": 826.0784147726526, "timestamp": "2025-12-22T23:36:20.995224+00:00", "meta": {"OBJECT_NAME": "FENGYUN 1C DEB", "OBJECT_ID": "1999-025BQC", "EPOCH": "2025-12-21T14:16:42.684672", "MEAN_MOTION": 14.14700279, "ECCENTRICITY": 0.0048997, "INCLINATION": 99.1242, "RA_OF_ASC_NODE": 277.2633, "ARG_OF_PERICENTER": 278.9209, "MEAN_ANOMALY": 80.6419, "EPHEMERIS_TYPE": 0, "CLASSIFICATION_TYPE": "U", "NORAD_CAT_ID": 31324, "ELEMENT_SET_NO": 999, "REV_AT_EPOCH": 96611, "BSTAR": 0.00014071, "MEAN_MOTION_DOT": 2.27e-06, "MEAN_MOTION_DDOT": 0}, "tle": {"line1": "1 31324U 99025BQC 25355.59493848  .00000227  00000+0  14071-3 0  9994", "line2": "2 31324  99.1242 277.2633 0048997 278.9209  80.6419 14.14700279966112"}}, "geometry": {"type": "Point", "coordinates": [88.84318364470022, -46.75618137082582]}}]}